{
  "type": "FeatureCollection",
  "features": [
    {
      "type": "Feature",
      "properties": {
        "norad_id": 34056,
        "name": "COSMOS 2251 DEB",
        "group": "cosmos-2251-debris",
        "lat": 70.86683505617329,
        "lon": 117.61710016666956,
        "alt_km": 737.6593785612531,
        "timestamp": "2025-12-20T16:47:36.678409+00:00",
        "meta_object_name": "COSMOS 2251 DEB",
        "meta_object_id": "1993-036JT",
        "meta_epoch": "2025-12-20T06:34:57.855072",
        "meta_mean_motion": 14.20580967,
        "meta_eccentricity": 0.012376,
        "meta_inclination": 74.0586,
        "meta_ra_of_asc_node": 62.9046,
        "meta_arg_of_pericenter": 108.7592,
        "meta_mean_anomaly": 316.3034,
        "meta_ephemeris_type": 0,
        "meta_classification_type": "U",
        "meta_norad_cat_id": 34056,
        "meta_element_set_no": 999,
        "meta_rev_at_epoch": 86518,
        "meta_bstar": 0.00049342,
        "meta_mean_motion_dot": 1.122e-05,
        "meta_mean_motion_ddot": 0,
        "tle_line1": "1 34056U 93036JT  25354.27428073  .00001122  00000+0  49342-3 0  9991",
        "tle_line2": "2 34056  74.0586  62.9046 0123760 108.7592 316.3034 14.20580967865188"
      },
      "geometry": {
        "type": "Point",
        "coordinates": [
          117.61710016666956,
          70.86683505617329
        ]
      }
    },
    {
      "type": "Feature",
      "properties": {
        "norad_id": 34058,
        "name": "COSMOS 2251 DEB",
        "group": "cosmos-2251-debris",
        "lat": -6.561887491347985,
        "lon": -12.890055012406158,
        "alt_km": 802.8416661855008,
        "timestamp": "2025-12-20T16:47:36.678419+00:00",
        "meta_object_name": "COSMOS 2251 DEB",
        "meta_object_id": "1993-036JV",
        "meta_epoch": "2025-12-20T10:43:09.746976",
        "meta_mean_motion": 13.56087377,
        "meta_eccentricity": 0.0377615,
        "meta_inclination": 73.9314,
        "meta_ra_of_asc_node": 165.6202,
        "meta_arg_of_pericenter": 159.393,
        "meta_mean_anomaly": 230.2536,
        "meta_ephemeris_type": 0,
        "meta_classification_type": "U",
        "meta_norad_cat_id": 34058,
        "meta_element_set_no": 999,
        "meta_rev_at_epoch": 83247,
        "meta_bstar": 0.00054782,
        "meta_mean_motion_dot": 5.87e-06,
        "meta_mean_motion_ddot": 0,
        "tle_line1": "1 34058U 93036JV  25354.44664059  .00000587  00000+0  54782-3 0  9996",
        "tle_line2": "2 34058  73.9314 165.6202 0377615 159.3930 230.2536 13.56087377832472"
      },
      "geometry": {
        "type": "Point",
        "coordinates": [
          -12.890055012406158,
          -6.561887491347985
        ]
      }
    },
    {
      "type": "Feature",
      "properties": {
        "norad_id": 34059,
        "name": "COSMOS 2251 DEB",
        "group": "cosmos-2251-debris",
        "lat": -56.941887598087234,
        "lon": 145.16879691360958,
        "alt_km": 714.4775891489171,
        "timestamp": "2025-12-20T16:47:36.678430+00:00",
        "meta_object_name": "COSMOS 2251 DEB",
        "meta_object_id": "1993-036JW",
        "meta_epoch": "2025-12-20T12:15:12.270816",
        "meta_mean_motion": 14.52988712,
        "meta_eccentricity": 0.0018473,
        "meta_inclination": 74.0366,
        "meta_ra_of_asc_node": 171.6165,
        "meta_arg_of_pericenter": 248.1686,
        "meta_mean_anomaly": 141.9557,
        "meta_ephemeris_type": 0,
        "meta_classification_type": "U",
        "meta_norad_cat_id": 34059,
        "meta_element_set_no": 999,
        "meta_rev_at_epoch": 88572,
        "meta_bstar": 0.00051286,
        "meta_mean_motion_dot": 2.093e-05,
        "meta_mean_motion_ddot": 0,
        "tle_line1": "1 34059U 93036JW  25354.51055869  .00002093  00000+0  51286-3 0  9998",
        "tle_line2": "2 34059  74.0366 171.6165 0018473 248.1686 141.9557 14.52988712885723"
      },
      "geometry": {
        "type": "Point",
        "coordinates": [
          145.16879691360958,
          -56.941887598087234
        ]
      }
    },
    {
      "type": "Feature",
      "properties": {
        "norad_id": 34061,
        "name": "COSMOS 2251 DEB",
        "group": "cosmos-2251-debris",
        "lat": -68.09895813073622,
        "lon": -156.7129443650704,
        "alt_km": 752.6641645447417,
        "timestamp": "2025-12-20T16:47:36.678440+00:00",
        "meta_object_name": "COSMOS 2251 DEB",
        "meta_object_id": "1993-036JY",
        "meta_epoch": "2025-12-20T04:33:23.886720",
        "meta_mean_motion": 14.40371831,
        "meta_eccentricity": 0.00207756,
        "meta_inclination": 74.039,
        "meta_ra_of_asc_node": 249.6184,
        "meta_arg_of_pericenter": 325.425,
        "meta_mean_anomaly": 197.1616,
        "meta_ephemeris_type": 0,
        "meta_classification_type": "U",
        "meta_norad_cat_id": 34061,
        "meta_element_set_no": 999,
        "meta_rev_at_epoch": 88287,
        "meta_bstar": 0.00021445275,
        "meta_mean_motion_dot": 6.56e-06,
        "meta_mean_motion_ddot": 0,
        "tle_line1": "1 34061U 93036JY  25354.18985980  .00000656  00000+0  21445-3 0  9997",
        "tle_line2": "2 34061  74.0390 249.6184 0020775 325.4250 197.1616 14.40371831882871"
      },
      "geometry": {
        "type": "Point",
        "coordinates": [
          -156.7129443650704,
          -68.09895813073622
        ]
      }
    },
    {
      "type": "Feature",
      "properties": {
        "norad_id": 34062,
        "name": "COSMOS 2251 DEB",
        "group": "cosmos-2251-debris",
        "lat": 61.486939102833844,
        "lon": 154.19406109856843,
        "alt_km": 661.802185987759,
        "timestamp": "2025-12-20T16:47:36.678450+00:00",
        "meta_object_name": "COSMOS 2251 DEB",
        "meta_object_id": "1993-036JZ",
        "meta_epoch": "2025-12-20T10:15:22.938048",
        "meta_mean_motion": 14.78948215,
        "meta_eccentricity": 0.0073668,
        "meta_inclination": 74.0283,
        "meta_ra_of_asc_node": 122.9131,
        "meta_arg_of_pericenter": 200.4606,
        "meta_mean_anomaly": 216.6506,
        "meta_ephemeris_type": 0,
        "meta_classification_type": "U",
        "meta_norad_cat_id": 34062,
        "meta_element_set_no": 999,
        "meta_rev_at_epoch": 88709,
        "meta_bstar": 0.0018746,
        "meta_mean_motion_dot": 0.00014476,
        "meta_mean_motion_ddot": 0,
        "tle_line1": "1 34062U 93036JZ  25354.42734882  .00014476  00000+0  18746-2 0  9992",
        "tle_line2": "2 34062  74.0283 122.9131 0073668 200.4606 216.6506 14.78948215887095"
      },
      "geometry": {
        "type": "Point",
        "coordinates": [
          154.19406109856843,
          61.486939102833844
        ]
      }
    },
    {
      "type": "Feature",
      "properties": {
        "norad_id": 34064,
        "name": "COSMOS 2251 DEB",
        "group": "cosmos-2251-debris",
        "lat": -42.161576706073234,
        "lon": -118.92575038510122,
        "alt_km": 741.1213256942401,
        "timestamp": "2025-12-20T16:47:36.678460+00:00",
        "meta_object_name": "COSMOS 2251 DEB",
        "meta_object_id": "1993-036KB",
        "meta_epoch": "2025-12-20T00:26:38.330880",
        "meta_mean_motion": 14.42360778,
        "meta_eccentricity": 0.00223166,
        "meta_inclination": 74.0321,
        "meta_ra_of_asc_node": 257.3646,
        "meta_arg_of_pericenter": 322.8704,
        "meta_mean_anomaly": 57.099,
        "meta_ephemeris_type": 0,
        "meta_classification_type": "U",
        "meta_norad_cat_id": 34064,
        "meta_element_set_no": 999,
        "meta_rev_at_epoch": 88247,
        "meta_bstar": 0.00034430103,
        "meta_mean_motion_dot": 1.115e-05,
        "meta_mean_motion_ddot": 0,
        "tle_line1": "1 34064U 93036KB  25354.01849920  .00001115  00000+0  34430-3 0  9994",
        "tle_line2": "2 34064  74.0321 257.3646 0022316 322.8704  57.0990 14.42360778882470"
      },
      "geometry": {
        "type": "Point",
        "coordinates": [
          -118.92575038510122,
          -42.161576706073234
        ]
      }
    },
    {
      "type": "Feature",
      "properties": {
        "norad_id": 34065,
        "name": "COSMOS 2251 DEB",
        "group": "cosmos-2251-debris",
        "lat": -25.269341969282898,
        "lon": 71.22573018280492,
        "alt_km": 778.2831720381018,
        "timestamp": "2025-12-20T16:47:36.678469+00:00",
        "meta_object_name": "COSMOS 2251 DEB",
        "meta_object_id": "1993-036KC",
        "meta_epoch": "2025-12-20T03:14:04.680960",
        "meta_mean_motion": 14.38070126,
        "meta_eccentricity": 0.00166771,
        "meta_inclination": 74.0353,
        "meta_ra_of_asc_node": 244.4999,
        "meta_arg_of_pericenter": 340.6993,
        "meta_mean_anomaly": 182.0759,
        "meta_ephemeris_type": 0,
        "meta_classification_type": "U",
        "meta_norad_cat_id": 34065,
        "meta_element_set_no": 999,
        "meta_rev_at_epoch": 88311,
        "meta_bstar": 0.00012127045,
        "meta_mean_motion_dot": 3.41e-06,
        "meta_mean_motion_ddot": 0,
        "tle_line1": "1 34065U 93036KC  25354.13477640  .00000341  00000+0  12127-3 0  9993",
        "tle_line2": "2 34065  74.0353 244.4999 0016677 340.6993 182.0759 14.38070126883119"
      },
      "geometry": {
        "type": "Point",
        "coordinates": [
          71.22573018280492,
          -25.269341969282898
        ]
      }
    }
  ]
}